[{"OBJECT_NAME":"STARLINK-30847","OBJECT_ID":"2023-171K","EPOCH":"2023-11-21T12:00:00.999648","MEAN_MOTION":15.73005844,"ECCENTRICITY":0.0001608,"INCLINATION":43.0014,"RA_OF_ASC_NODE":178.8838,"ARG_OF_PERICENTER":268.1549,"MEAN_ANOMALY":234.8421,"EPHEMERIS_TYPE":0,"CLASSIFICATION_TYPE":"U","NORAD_CAT_ID":58239,"ELEMENT_SET_NO":999,"REV_AT_EPOCH":335,"BSTAR":-0.013684,"MEAN_MOTION_DOT":-0.01699625,"MEAN_MOTION_DDOT":0},{"OBJECT_NAME":"STARLINK-30848","OBJECT_ID":"2023-171L","EPOCH":"2023-11-21T12:00:00.999648","MEAN_MOTION":15.72996837,"ECCENTRICITY":0.0001253,"INCLINATION":43.0012,"RA_OF_ASC_NODE":178.8786,"ARG_OF_PERICENTER":258.0389,"MEAN_ANOMALY":246.8291,"EPHEMERIS_TYPE":0,"CLASSIFICATION_TYPE":"U","NORAD_CAT_ID":58240,"ELEMENT_SET_NO":999,"REV_AT_EPOCH":335,"BSTAR":-0.013619,"MEAN_MOTION_DOT":-0.01691669,"MEAN_MOTION_DDOT":0},{"OBJECT_NAME":"STARLINK-30843","OBJECT_ID":"2023-171M","EPOCH":"2023-11-21T12:00:00.999648","MEAN_MOTION":15.73004119,"ECCENTRICITY":0.0001116,"INCLINATION":43.0011,"RA_OF_ASC_NODE":178.8819,"ARG_OF_PERICENTER":269.3398,"MEAN_ANOMALY":234.281,"EPHEMERIS_TYPE":0,"CLASSIFICATION_TYPE":"U","NORAD_CAT_ID":58241,"ELEMENT_SET_NO":999,"REV_AT_EPOCH":335,"BSTAR":-0.013685,"MEAN_MOTION_DOT":-0.01699275,"MEAN_MOTION_DDOT":0},{"OBJECT_NAME":"STARLINK-30877","OBJECT_ID":"2023-171N","EPOCH":"2023-11-21T12:00:00.999648","MEAN_MOTION":15.73002784,"ECCENTRICITY":0.0001202,"INCLINATION":43.001,"RA_OF_ASC_NODE":178.8804,"ARG_OF_PERICENTER":271.9924,"MEAN_ANOMALY":232.2514,"EPHEMERIS_TYPE":0,"CLASSIFICATION_TYPE":"U","NORAD_CAT_ID":58242,"ELEMENT_SET_NO":999,"REV_AT_EPOCH":335,"BSTAR":-0.01369,"MEAN_MOTION_DOT":-0.01699795,"MEAN_MOTION_DDOT":0},{"OBJECT_NAME":"STARLINK-30864","OBJECT_ID":"2023-171P","EPOCH":"2023-11-21T12:00:00.999648","MEAN_MOTION":15.72999141,"ECCENTRICITY":0.0001597,"INCLINATION":43.0009,"RA_OF_ASC_NODE":178.8749,"ARG_OF_PERICENTER":268.553,"MEAN_ANOMALY":237.5602,"EPHEMERIS_TYPE":0,"CLASSIFICATION_TYPE":"U","NORAD_CAT_ID":58243,"ELEMENT_SET_NO":999,"REV_AT_EPOCH":324,"BSTAR":-0.013692,"MEAN_MOTION_DOT":-0.01700058,"MEAN_MOTION_DDOT":0},{"OBJECT_NAME":"STARLINK-30854","OBJECT_ID":"2023-171Q","EPOCH":"2023-11-21T12:00:00.999648","MEAN_MOTION":15.73000338,"ECCENTRICITY":0.0001577,"INCLINATION":43.0008,"RA_OF_ASC_NODE":178.8767,"ARG_OF_PERICENTER":275.812,"MEAN_ANOMALY":229.6784,"EPHEMERIS_TYPE":0,"CLASSIFICATION_TYPE":"U","NORAD_CAT_ID":58244,"ELEMENT_SET_NO":999,"REV_AT_EPOCH":336,"BSTAR":-0.013694,"MEAN_MOTION_DOT":-0.0170034,"MEAN_MOTION_DDOT":0},{"OBJECT_NAME":"STARLINK-30849","OBJECT_ID":"2023-171R","EPOCH":"2023-11-21T12:00:00.999648","MEAN_MOTION":15.72995647,"ECCENTRICITY":0.0001644,"INCLINATION":43.0009,"RA_OF_ASC_NODE":178.8734,"ARG_OF_PERICENTER":255.5032,"MEAN_ANOMALY":251.2339,"EPHEMERIS_TYPE":0,"CLASSIFICATION_TYPE":"U","NORAD_CAT_ID":58245,"ELEMENT_SET_NO":999,"REV_AT_EPOCH":335,"BSTAR":-0.013667,"MEAN_MOTION_DOT":-0.01697129,"MEAN_MOTION_DDOT":0},{"OBJECT_NAME":"STARLINK-30886","OBJECT_ID":"2023-171S","EPOCH":"2023-11-21T12:00:00.999648","MEAN_MOTION":15.72995647,"ECCENTRICITY":0.0001666,"INCLINATION":43.001,"RA_OF_ASC_NODE":178.8701,"ARG_OF_PERICENTER":269.7925,"MEAN_ANOMALY":238.1903,"EPHEMERIS_TYPE":0,"CLASSIFICATION_TYPE":"U","NORAD_CAT_ID":58246,"ELEMENT_SET_NO":999,"REV_AT_EPOCH":335,"BSTAR":-0.013704,"MEAN_MOTION_DOT":-0.01701195,"MEAN_MOTION_DDOT":0},{"OBJECT_NAME":"STARLINK-30850","OBJECT_ID":"2023-171T","EPOCH":"2023-11-21T12:00:00.999648","MEAN_MOTION":15.7299045,"ECCENTRICITY":0.0001837,"INCLINATION":43.0009,"RA_OF_ASC_NODE":178.8718,"ARG_OF_PERICENTER":250.1521,"MEAN_ANOMALY":257.2116,"EPHEMERIS_TYPE":0,"CLASSIFICATION_TYPE":"U","NORAD_CAT_ID":58247,"ELEMENT_SET_NO":999,"REV_AT_EPOCH":319,"BSTAR":-0.013641,"MEAN_MOTION_DOT":-0.01694086,"MEAN_MOTION_DDOT":0},{"OBJECT_NAME":"STARLINK-30823","OBJECT_ID":"2023-171U","EPOCH":"2023-11-21T12:00:00.999648","MEAN_MOTION":15.72992629,"ECCENTRICITY":0.0001466,"INCLINATION":43.0008,"RA_OF_ASC_NODE":178.8688,"ARG_OF_PERICENTER":255.8626,"MEAN_ANOMALY":252.7436,"EPHEMERIS_TYPE":0,"CLASSIFICATION_TYPE":"U","NORAD_CAT_ID":58248,"ELEMENT_SET_NO":999,"REV_AT_EPOCH":336,"BSTAR":-0.013683,"MEAN_MOTION_DOT":-0.01698556,"MEAN_MOTION_DDOT":0},{"OBJECT_NAME":"STARLINK-30873","OBJECT_ID":"2023-171V","EPOCH":"2023-11-21T12:00:00.999648","MEAN_MOTION":15.72992368,"ECCENTRICITY":0.0001475,"INCLINATION":43.0009,"RA_OF_ASC_NODE":178.8673,"ARG_OF_PERICENTER":257.4913,"MEAN_ANOMALY":251.7378,"EPHEMERIS_TYPE":0,"CLASSIFICATION_TYPE":"U","NORAD_CAT_ID":58249,"ELEMENT_SET_NO":999,"REV_AT_EPOCH":336,"BSTAR":-0.013698,"MEAN_MOTION_DOT":-0.01700187,"MEAN_MOTION_DDOT":0},{"OBJECT_NAME":"STARLINK-30808","OBJECT_ID":"2023-171W","EPOCH":"2023-11-21T12:00:00.999648","MEAN_MOTION":15.74464062,"ECCENTRICITY":0.0001603,"INCLINATION":43.0018,"RA_OF_ASC_NODE":178.6835,"ARG_OF_PERICENTER":262.2128,"MEAN_ANOMALY":320.0971,"EPHEMERIS_TYPE":0,"CLASSIFICATION_TYPE":"U","NORAD_CAT_ID":58250,"ELEMENT_SET_NO":999,"REV_AT_EPOCH":335,"BSTAR":-0.010101,"MEAN_MOTION_DOT":-0.01348762,"MEAN_MOTION_DDOT":0},{"OBJECT_NAME":"STARLINK-30881","OBJECT_ID":"2023-171X","EPOCH":"2023-11-21T04:00:00.999936","MEAN_MOTION":15.79837236,"ECCENTRICITY":0.0001816,"INCLINATION":43.0031,"RA_OF_ASC_NODE":180.3727,"ARG_OF_PERICENTER":275.0544,"MEAN_ANOMALY":348.217,"EPHEMERIS_TYPE":0,"CLASSIFICATION_TYPE":"U","NORAD_CAT_ID":58251,"ELEMENT_SET_NO":999,"REV_AT_EPOCH":324,"BSTAR":-0.0061072,"MEAN_MOTION_DOT":-0.01049296,"MEAN_MOTION_DDOT":0},{"OBJECT_NAME":"STARLINK-30883","OBJECT_ID":"2023-171Y","EPOCH":"2023-11-21T12:00:00.999648","MEAN_MOTION":15.72993872,"ECCENTRICITY":0.0002002,"INCLINATION":43.0007,"RA_OF_ASC_NODE":178.8645,"ARG_OF_PERICENTER":268.4725,"MEAN_ANOMALY":242.0019,"EPHEMERIS_TYPE":0,"CLASSIFICATION_TYPE":"U","NORAD_CAT_ID":58252,"ELEMENT_SET_NO":999,"REV_AT_EPOCH":336,"BSTAR":-0.013764,"MEAN_MOTION_DOT":-0.01707898,"MEAN_MOTION_DDOT":0},{"OBJECT_NAME":"CHINASAT 6E (ZX 6E)","OBJECT_ID":"2023-172A","EPOCH":"2023-11-17T17:53:42.717984","MEAN_MOTION":1.00274637,"ECCENTRICITY":0.0002534,"INCLINATION":0.072,"RA_OF_ASC_NODE":256.8198,"ARG_OF_PERICENTER":265.5418,"MEAN_ANOMALY":292.4154,"EPHEMERIS_TYPE":0,"CLASSIFICATION_TYPE":"U","NORAD_CAT_ID":58253,"ELEMENT_SET_NO":999,"REV_AT_EPOCH":20,"BSTAR":0,"MEAN_MOTION_DOT":-3.24e-6,"MEAN_MOTION_DDOT":0}]
