STARLINK-30847          
1 58239U 23171K   23325.50001157 -.01699625  00000+0 -13684-1 0  9997
2 58239  43.0014 178.8838 0001608 268.1549 234.8421 15.73005844  3356
STARLINK-30848          
1 58240U 23171L   23325.50001157 -.01691669  00000+0 -13619-1 0  9997
2 58240  43.0012 178.8786 0001253 258.0389 246.8291 15.72996837  3352
STARLINK-30843          
1 58241U 23171M   23325.50001157 -.01699275  00000+0 -13685-1 0  9992
2 58241  43.0011 178.8819 0001116 269.3398 234.2810 15.73004119  3354
STARLINK-30877          
1 58242U 23171N   23325.50001157 -.01699795  00000+0 -13690-1 0  9996
2 58242  43.0010 178.8804 0001202 271.9924 232.2514 15.73002784  3353
STARLINK-30864          
1 58243U 23171P   23325.50001157 -.01700058  00000+0 -13692-1 0  9994
2 58243  43.0009 178.8749 0001597 268.5530 237.5602 15.72999141  3247
STARLINK-30854          
1 58244U 23171Q   23325.50001157 -.01700340  00000+0 -13694-1 0  9991
2 58244  43.0008 178.8767 0001577 275.8120 229.6784 15.73000338  3369
STARLINK-30849          
1 58245U 23171R   23325.50001157 -.01697129  00000+0 -13667-1 0  9992
2 58245  43.0009 178.8734 0001644 255.5032 251.2339 15.72995647  3358
STARLINK-30886          
1 58246U 23171S   23325.50001157 -.01701195  00000+0 -13704-1 0  9994
2 58246  43.0010 178.8701 0001666 269.7925 238.1903 15.72995647  3358
STARLINK-30850          
1 58247U 23171T   23325.50001157 -.01694086  00000+0 -13641-1 0  9995
2 58247  43.0009 178.8718 0001837 250.1521 257.2116 15.72990450  3198
STARLINK-30823          
1 58248U 23171U   23325.50001157 -.01698556  00000+0 -13683-1 0  9998
2 58248  43.0008 178.8688 0001466 255.8626 252.7436 15.72992629  3364
STARLINK-30873          
1 58249U 23171V   23325.50001157 -.01700187  00000+0 -13698-1 0  9999
2 58249  43.0009 178.8673 0001475 257.4913 251.7378 15.72992368  3361
STARLINK-30808          
1 58250U 23171W   23325.50001157 -.01348762  00000+0 -10101-1 0  9994
2 58250  43.0018 178.6835 0001603 262.2128 320.0971 15.74464062  3351
STARLINK-30881          
1 58251U 23171X   23325.16667824 -.01049296  00000+0 -61072-2 0  9990
2 58251  43.0031 180.3727 0001816 275.0544 348.2170 15.79837236  3240
STARLINK-30883          
1 58252U 23171Y   23325.50001157 -.01707898  00000+0 -13764-1 0  9993
2 58252  43.0007 178.8645 0002002 268.4725 242.0019 15.72993872  3368
CHINASAT 6E (ZX 6E)     
1 58253U 23172A   23321.74563331 -.00000324  00000+0  00000+0 0  9999
2 58253   0.0720 256.8198 0002534 265.5418 292.4154  1.00274637   207
